{
  "norad_id": 62526,
  "name": "STARLINK-32741",
  "history": [
    {
      "epoch": "2026-03-28T18:22:01.553664",
      "apogee_km": 484.42421116702644,
      "perigee_km": 481.6418694922713,
      "latitude_deg": -42.868841574779424,
      "longitude_deg": 146.06839296012186,
      "semi_major_axis_km": 6861.170040329648,
      "eccentricity": 0.00020276,
      "inclination_deg": 43.0012,
      "raan_deg": 108.8863,
      "arg_perigee_deg": 270.6478,
      "mean_anomaly_deg": 89.4141,
      "mean_motion_rev_day": 15.27585362
    },
    {
      "epoch": "2026-03-29T00:38:39.804576",
      "apogee_km": 483.62434052268964,
      "perigee_km": 482.4798941779154,
      "latitude_deg": 18.667484602844656,
      "longitude_deg": 171.17756064003333,
      "semi_major_axis_km": 6861.189117350302,
      "eccentricity": 8.34e-05,
      "inclination_deg": 43.002,
      "raan_deg": 107.4057,
      "arg_perigee_deg": 266.3963,
      "mean_anomaly_deg": 93.6793,
      "mean_motion_rev_day": 15.27578991
    }
  ]
}